STARLINK-35710          
1 66212U 25244G   25322.91671296 -.00040520  00000+0 -72380-3 0  9994
2 66212  53.1606  28.3895 0001249  87.3155 286.9738 15.49326743  4517
STARLINK-34204          
1 66213U 25244H   25322.91671296 -.02096797  00000+0 -42697-1 0  9990
2 66213  53.1608  28.3941 0000728  76.3762 295.9685 15.49150146  4709
STARLINK-35714          
1 66214U 25244J   25322.91671296  .00037696  00000+0  68361-3 0  9998
2 66214  53.1608  28.3733 0001247  84.4509 297.5349 15.49264999  4386
STARLINK-35712          
1 66215U 25244K   25322.91671296  .00036416  00000+0  66079-3 0  9992
2 66215  53.1607  28.3656 0001098  83.7729 302.0480 15.49265046  4382
STARLINK-35709          
1 66216U 25244L   25322.91671296 -.00033070  00000+0 -58873-3 0  9991
2 66216  53.1607  28.3858 0001063  75.5828 300.6243 15.49324304  4382
STARLINK-35700          
1 66217U 25244M   25322.91671296  .00034218  00000+0  62148-3 0  9995
2 66217  53.1607  28.3820 0001120  82.5684 295.5811 15.49268402  4383
STARLINK-35722          
1 66218U 25244N   25322.91671296  .00035051  00000+0  63641-3 0  9991
2 66218  53.1607  28.3777 0001136  84.0813 295.9915 15.49265705  4385
STARLINK-35737          
1 66219U 25244P   25322.91671296  .00035600  00000+0  64621-3 0  9991
2 66219  53.1607  28.3701 0001128  82.5557 301.3482 15.49265687  4540
STARLINK-35677          
1 66220U 25244Q   25322.91671296  .00034284  00000+0  62266-3 0  9993
2 66220  53.1607  28.3622 0001119  81.9854 305.7474 15.49268787  4382
STARLINK-35704          
1 66221U 25244R   25322.91671296  .00040527  00000+0  73413-3 0  9997
2 66221  53.1607  28.3577 0001192  77.7666 311.8896 15.49262868  4387
STARLINK-35666          
1 66222U 25244S   25322.91671296  .00038297  00000+0  69449-3 0  9993
2 66222  53.1607  28.3499 0001015 101.3500 292.1531 15.49258185  4492
STARLINK-35664          
1 66223U 25244T   25322.91671296  .00036046  00000+0  65415-3 0  9993
2 66223  53.1607  28.3544 0001374  58.8961 332.6758 15.49266041  4490
