CCSDS_OMM_VERS = 2.0
CREATION_DATE  = 
ORIGINATOR     = 

OBJECT_NAME    = STARLINK-35710
OBJECT_ID      = 2025-244G
CENTER_NAME    = EARTH
REF_FRAME      = TEME
TIME_SYSTEM    = UTC
MEAN_ELEMENT_THEORY = SGP/SGP4

EPOCH          = 2025-11-18T22:00:03.999744
MEAN_MOTION    = 15.49326743
ECCENTRICITY   = .00012498
INCLINATION    = 53.1606
RA_OF_ASC_NODE = 28.3895
ARG_OF_PERICENTER = 87.3155
MEAN_ANOMALY   = 286.9738

EPHEMERIS_TYPE = 0
CLASSIFICATION_TYPE = U
NORAD_CAT_ID   = 66212
ELEMENT_SET_NO = 999
REV_AT_EPOCH   = 451
BSTAR          = -.72380445E-3
MEAN_MOTION_DOT = -.4052E-3
MEAN_MOTION_DDOT = 0

CCSDS_OMM_VERS = 2.0
CREATION_DATE  = 
ORIGINATOR     = 

OBJECT_NAME    = STARLINK-34204
OBJECT_ID      = 2025-244H
CENTER_NAME    = EARTH
REF_FRAME      = TEME
TIME_SYSTEM    = UTC
MEAN_ELEMENT_THEORY = SGP/SGP4

EPOCH          = 2025-11-18T22:00:03.999744
MEAN_MOTION    = 15.49150146
ECCENTRICITY   = .00007289
INCLINATION    = 53.1608
RA_OF_ASC_NODE = 28.3941
ARG_OF_PERICENTER = 76.3762
MEAN_ANOMALY   = 295.9685

EPHEMERIS_TYPE = 0
CLASSIFICATION_TYPE = U
NORAD_CAT_ID   = 66213
ELEMENT_SET_NO = 999
REV_AT_EPOCH   = 470
BSTAR          = -.42696857E-1
MEAN_MOTION_DOT = -.2096797E-1
MEAN_MOTION_DDOT = 0

CCSDS_OMM_VERS = 2.0
CREATION_DATE  = 
ORIGINATOR     = 

OBJECT_NAME    = STARLINK-35714
OBJECT_ID      = 2025-244J
CENTER_NAME    = EARTH
REF_FRAME      = TEME
TIME_SYSTEM    = UTC
MEAN_ELEMENT_THEORY = SGP/SGP4

EPOCH          = 2025-11-18T22:00:03.999744
MEAN_MOTION    = 15.49264999
ECCENTRICITY   = .00012473
INCLINATION    = 53.1608
RA_OF_ASC_NODE = 28.3733
ARG_OF_PERICENTER = 84.4509
MEAN_ANOMALY   = 297.5349

EPHEMERIS_TYPE = 0
CLASSIFICATION_TYPE = U
NORAD_CAT_ID   = 66214
ELEMENT_SET_NO = 999
REV_AT_EPOCH   = 438
BSTAR          = .68360609E-3
MEAN_MOTION_DOT = .37696E-3
MEAN_MOTION_DDOT = 0

CCSDS_OMM_VERS = 2.0
CREATION_DATE  = 
ORIGINATOR     = 

OBJECT_NAME    = STARLINK-35712
OBJECT_ID      = 2025-244K
CENTER_NAME    = EARTH
REF_FRAME      = TEME
TIME_SYSTEM    = UTC
MEAN_ELEMENT_THEORY = SGP/SGP4

EPOCH          = 2025-11-18T22:00:03.999744
MEAN_MOTION    = 15.49265046
ECCENTRICITY   = .00010984
INCLINATION    = 53.1607
RA_OF_ASC_NODE = 28.3656
ARG_OF_PERICENTER = 83.7729
MEAN_ANOMALY   = 302.0480

EPHEMERIS_TYPE = 0
CLASSIFICATION_TYPE = U
NORAD_CAT_ID   = 66215
ELEMENT_SET_NO = 999
REV_AT_EPOCH   = 438
BSTAR          = .66078773E-3
MEAN_MOTION_DOT = .36416E-3
MEAN_MOTION_DDOT = 0

CCSDS_OMM_VERS = 2.0
CREATION_DATE  = 
ORIGINATOR     = 

OBJECT_NAME    = STARLINK-35709
OBJECT_ID      = 2025-244L
CENTER_NAME    = EARTH
REF_FRAME      = TEME
TIME_SYSTEM    = UTC
MEAN_ELEMENT_THEORY = SGP/SGP4

EPOCH          = 2025-11-18T22:00:03.999744
MEAN_MOTION    = 15.49324304
ECCENTRICITY   = .00010631
INCLINATION    = 53.1607
RA_OF_ASC_NODE = 28.3858
ARG_OF_PERICENTER = 75.5828
MEAN_ANOMALY   = 300.6243

EPHEMERIS_TYPE = 0
CLASSIFICATION_TYPE = U
NORAD_CAT_ID   = 66216
ELEMENT_SET_NO = 999
REV_AT_EPOCH   = 438
BSTAR          = -.58872785E-3
MEAN_MOTION_DOT = -.3307E-3
MEAN_MOTION_DDOT = 0

CCSDS_OMM_VERS = 2.0
CREATION_DATE  = 
ORIGINATOR     = 

OBJECT_NAME    = STARLINK-35700
OBJECT_ID      = 2025-244M
CENTER_NAME    = EARTH
REF_FRAME      = TEME
TIME_SYSTEM    = UTC
MEAN_ELEMENT_THEORY = SGP/SGP4

EPOCH          = 2025-11-18T22:00:03.999744
MEAN_MOTION    = 15.49268402
ECCENTRICITY   = .00011207
INCLINATION    = 53.1607
RA_OF_ASC_NODE = 28.3820
ARG_OF_PERICENTER = 82.5684
MEAN_ANOMALY   = 295.5811

EPHEMERIS_TYPE = 0
CLASSIFICATION_TYPE = U
NORAD_CAT_ID   = 66217
ELEMENT_SET_NO = 999
REV_AT_EPOCH   = 438
BSTAR          = .62147619E-3
MEAN_MOTION_DOT = .34218E-3
MEAN_MOTION_DDOT = 0

CCSDS_OMM_VERS = 2.0
CREATION_DATE  = 
ORIGINATOR     = 

OBJECT_NAME    = STARLINK-35722
OBJECT_ID      = 2025-244N
CENTER_NAME    = EARTH
REF_FRAME      = TEME
TIME_SYSTEM    = UTC
MEAN_ELEMENT_THEORY = SGP/SGP4

EPOCH          = 2025-11-18T22:00:03.999744
MEAN_MOTION    = 15.49265705
ECCENTRICITY   = .00011365
INCLINATION    = 53.1607
RA_OF_ASC_NODE = 28.3777
ARG_OF_PERICENTER = 84.0813
MEAN_ANOMALY   = 295.9915

EPHEMERIS_TYPE = 0
CLASSIFICATION_TYPE = U
NORAD_CAT_ID   = 66218
ELEMENT_SET_NO = 999
REV_AT_EPOCH   = 438
BSTAR          = .6364092E-3
MEAN_MOTION_DOT = .35051E-3
MEAN_MOTION_DDOT = 0

CCSDS_OMM_VERS = 2.0
CREATION_DATE  = 
ORIGINATOR     = 

OBJECT_NAME    = STARLINK-35737
OBJECT_ID      = 2025-244P
CENTER_NAME    = EARTH
REF_FRAME      = TEME
TIME_SYSTEM    = UTC
MEAN_ELEMENT_THEORY = SGP/SGP4

EPOCH          = 2025-11-18T22:00:03.999744
MEAN_MOTION    = 15.49265687
ECCENTRICITY   = .00011287
INCLINATION    = 53.1607
RA_OF_ASC_NODE = 28.3701
ARG_OF_PERICENTER = 82.5557
MEAN_ANOMALY   = 301.3482

EPHEMERIS_TYPE = 0
CLASSIFICATION_TYPE = U
NORAD_CAT_ID   = 66219
ELEMENT_SET_NO = 999
REV_AT_EPOCH   = 454
BSTAR          = .64620848E-3
MEAN_MOTION_DOT = .356E-3
MEAN_MOTION_DDOT = 0

CCSDS_OMM_VERS = 2.0
CREATION_DATE  = 
ORIGINATOR     = 

OBJECT_NAME    = STARLINK-35677
OBJECT_ID      = 2025-244Q
CENTER_NAME    = EARTH
REF_FRAME      = TEME
TIME_SYSTEM    = UTC
MEAN_ELEMENT_THEORY = SGP/SGP4

EPOCH          = 2025-11-18T22:00:03.999744
MEAN_MOTION    = 15.49268787
ECCENTRICITY   = .00011197
INCLINATION    = 53.1607
RA_OF_ASC_NODE = 28.3622
ARG_OF_PERICENTER = 81.9854
MEAN_ANOMALY   = 305.7474

EPHEMERIS_TYPE = 0
CLASSIFICATION_TYPE = U
NORAD_CAT_ID   = 66220
ELEMENT_SET_NO = 999
REV_AT_EPOCH   = 438
BSTAR          = .62266039E-3
MEAN_MOTION_DOT = .34284E-3
MEAN_MOTION_DDOT = 0

CCSDS_OMM_VERS = 2.0
CREATION_DATE  = 
ORIGINATOR     = 

OBJECT_NAME    = STARLINK-35704
OBJECT_ID      = 2025-244R
CENTER_NAME    = EARTH
REF_FRAME      = TEME
TIME_SYSTEM    = UTC
MEAN_ELEMENT_THEORY = SGP/SGP4

EPOCH          = 2025-11-18T22:00:03.999744
MEAN_MOTION    = 15.49262868
ECCENTRICITY   = .00011928
INCLINATION    = 53.1607
RA_OF_ASC_NODE = 28.3577
ARG_OF_PERICENTER = 77.7666
MEAN_ANOMALY   = 311.8896

EPHEMERIS_TYPE = 0
CLASSIFICATION_TYPE = U
NORAD_CAT_ID   = 66221
ELEMENT_SET_NO = 999
REV_AT_EPOCH   = 438
BSTAR          = .73413451E-3
MEAN_MOTION_DOT = .40527E-3
MEAN_MOTION_DDOT = 0

CCSDS_OMM_VERS = 2.0
CREATION_DATE  = 
ORIGINATOR     = 

OBJECT_NAME    = STARLINK-35666
OBJECT_ID      = 2025-244S
CENTER_NAME    = EARTH
REF_FRAME      = TEME
TIME_SYSTEM    = UTC
MEAN_ELEMENT_THEORY = SGP/SGP4

EPOCH          = 2025-11-18T22:00:03.999744
MEAN_MOTION    = 15.49258185
ECCENTRICITY   = .0001015
INCLINATION    = 53.1607
RA_OF_ASC_NODE = 28.3499
ARG_OF_PERICENTER = 101.3500
MEAN_ANOMALY   = 292.1531

EPHEMERIS_TYPE = 0
CLASSIFICATION_TYPE = U
NORAD_CAT_ID   = 66222
ELEMENT_SET_NO = 999
REV_AT_EPOCH   = 449
BSTAR          = .69448857E-3
MEAN_MOTION_DOT = .38297E-3
MEAN_MOTION_DDOT = 0

CCSDS_OMM_VERS = 2.0
CREATION_DATE  = 
ORIGINATOR     = 

OBJECT_NAME    = STARLINK-35664
OBJECT_ID      = 2025-244T
CENTER_NAME    = EARTH
REF_FRAME      = TEME
TIME_SYSTEM    = UTC
MEAN_ELEMENT_THEORY = SGP/SGP4

EPOCH          = 2025-11-18T22:00:03.999744
MEAN_MOTION    = 15.49266041
ECCENTRICITY   = .00013749
INCLINATION    = 53.1607
RA_OF_ASC_NODE = 28.3544
ARG_OF_PERICENTER = 58.8961
MEAN_ANOMALY   = 332.6758

EPHEMERIS_TYPE = 0
CLASSIFICATION_TYPE = U
NORAD_CAT_ID   = 66223
ELEMENT_SET_NO = 999
REV_AT_EPOCH   = 449
BSTAR          = .65414973E-3
MEAN_MOTION_DOT = .36046E-3
MEAN_MOTION_DDOT = 0

